[{"OBJECT_NAME":"STARLINK-34137","OBJECT_ID":"2025-099B","EPOCH":"2026-03-09T08:22:49.596096","MEAN_MOTION":15.27594804,"ECCENTRICITY":8.534e-5,"INCLINATION":43.0034,"RA_OF_ASC_NODE":178.2024,"ARG_OF_PERICENTER":278.3603,"MEAN_ANOMALY":81.7152,"EPHEMERIS_TYPE":0,"CLASSIFICATION_TYPE":"U","NORAD_CAT_ID":63953,"ELEMENT_SET_NO":999,"REV_AT_EPOCH":4728,"BSTAR":0.0009667544,"MEAN_MOTION_DOT":0.00026448,"MEAN_MOTION_DDOT":0},{"OBJECT_NAME":"FENGYUN 1C DEB","OBJECT_ID":"1999-025DCL","EPOCH":"2026-03-08T01:32:38.043744","MEAN_MOTION":14.80481308,"ECCENTRICITY":0.0218035,"INCLINATION":98.8149,"RA_OF_ASC_NODE":16.0796,"ARG_OF_PERICENTER":161.8742,"MEAN_ANOMALY":199.0399,"EPHEMERIS_TYPE":0,"CLASSIFICATION_TYPE":"U","NORAD_CAT_ID":33603,"ELEMENT_SET_NO":999,"REV_AT_EPOCH":119,"BSTAR":0.0001936534,"MEAN_MOTION_DOT":2.149e-5,"MEAN_MOTION_DDOT":0}]
